{"type": "FeatureCollection", "features": [{"type": "Feature", "geometry": {"type": "Point", "coordinates": [-1.6731537, 48.1144437]}, "properties": {"name": "2026-09-29-17-04-22-026", "url": "https://gurtsepaqrt87.github.io/gkr63x-g84zwo/photos/2026-09-29/2026-09-29-17-04-22-026.jpg", "commentaire": "", "date": "2026-09-29", "type": "photo", "_umap_options": {"color": "#9467bd"}, "_storage_options": {"color": "#9467bd"}}}, {"type": "Feature", "geometry": {"type": "Point", "coordinates": [-1.6737895565, 48.1145265566389]}, "properties": {"name": "2026-09-29-17-05-31-200", "url": "https://gurtsepaqrt87.github.io/gkr63x-g84zwo/photos/2026-09-29/2026-09-29-17-05-31-200.jpg", "commentaire": "", "date": "2026-09-29", "type": "photo", "_umap_options": {"color": "#9467bd"}, "_storage_options": {"color": "#9467bd"}}}, {"type": "Feature", "geometry": {"type": "Point", "coordinates": [-1.6763773, 48.1093273]}, "properties": {"name": "2026-09-29-17-14-20-033", "url": "https://gurtsepaqrt87.github.io/gkr63x-g84zwo/photos/2026-09-29/2026-09-29-17-14-20-033.jpg", "commentaire": "", "date": "2026-09-29", "type": "photo", "_umap_options": {"color": "#9467bd"}, "_storage_options": {"color": "#9467bd"}}}, {"type": "Feature", "geometry": {"type": "Point", "coordinates": [-1.67605283516667, 48.1067136318611]}, "properties": {"name": "2026-09-29-17-16-59-976", "url": "https://gurtsepaqrt87.github.io/gkr63x-g84zwo/photos/2026-09-29/2026-09-29-17-16-59-976.jpg", "commentaire": "", "date": "2026-09-29", "type": "photo", "_umap_options": {"color": "#9467bd"}, "_storage_options": {"color": "#9467bd"}}}, {"type": "Feature", "geometry": {"type": "Point", "coordinates": [-1.6733382, 48.1041756]}, "properties": {"name": "2026-09-29-17-20-02-217", "url": "https://gurtsepaqrt87.github.io/gkr63x-g84zwo/photos/2026-09-29/2026-09-29-17-20-02-217.jpg", "commentaire": "", "date": "2026-09-29", "type": "photo", "_umap_options": {"color": "#9467bd"}, "_storage_options": {"color": "#9467bd"}}}, {"type": "Feature", "geometry": {"type": "Point", "coordinates": [-1.66607245541667, 48.1049101874722]}, "properties": {"name": "2026-09-29-17-24-11-407", "url": "https://gurtsepaqrt87.github.io/gkr63x-g84zwo/photos/2026-09-29/2026-09-29-17-24-11-407.jpg", "commentaire": "", "date": "2026-09-29", "type": "photo", "_umap_options": {"color": "#9467bd"}, "_storage_options": {"color": "#9467bd"}}}, {"type": "Feature", "geometry": {"type": "Point", "coordinates": [-2.1590056, 48.1214783]}, "properties": {"name": "2026-09-22-14-40-41-440", "url": "https://gurtsepaqrt87.github.io/gkr63x-g84zwo/photos/2026-09-22/2026-09-22-14-40-41-440.jpg", "commentaire": "", "date": "2026-09-22", "type": "photo", "_umap_options": {"color": "#17becf"}, "_storage_options": {"color": "#17becf"}}}, {"type": "Feature", "geometry": {"type": "Point", "coordinates": [-2.15901231538889, 48.1214437818889]}, "properties": {"name": "2026-09-22-14-44-03-676", "url": "https://gurtsepaqrt87.github.io/gkr63x-g84zwo/photos/2026-09-22/2026-09-22-14-44-03-676.jpg", "commentaire": "", "date": "2026-09-22", "type": "photo", "_umap_options": {"color": "#17becf"}, "_storage_options": {"color": "#17becf"}}}, {"type": "Feature", "geometry": {"type": "Point", "coordinates": [-2.15930891016667, 48.1149762585]}, "properties": {"name": "2026-09-22-14-48-28-289", "url": "https://gurtsepaqrt87.github.io/gkr63x-g84zwo/photos/2026-09-22/2026-09-22-14-48-28-289.jpg", "commentaire": "", "date": "2026-09-22", "type": "photo", "_umap_options": {"color": "#17becf"}, "_storage_options": {"color": "#17becf"}}}, {"type": "Feature", "geometry": {"type": "Point", "coordinates": [-2.15930891016667, 48.1149762585]}, "properties": {"name": "2026-09-22-14-48-34-559", "url": "https://gurtsepaqrt87.github.io/gkr63x-g84zwo/photos/2026-09-22/2026-09-22-14-48-34-559.jpg", "commentaire": "", "date": "2026-09-22", "type": "photo", "_umap_options": {"color": "#17becf"}, "_storage_options": {"color": "#17becf"}}}, {"type": "Feature", "geometry": {"type": "Point", "coordinates": [-2.15930891016667, 48.1149762585]}, "properties": {"name": "2026-09-22-14-48-37-115", "url": "https://gurtsepaqrt87.github.io/gkr63x-g84zwo/photos/2026-09-22/2026-09-22-14-48-37-115.jpg", "commentaire": "", "date": "2026-09-22", "type": "photo", "_umap_options": {"color": "#17becf"}, "_storage_options": {"color": "#17becf"}}}, {"type": "Feature", "geometry": {"type": "Point", "coordinates": [-2.05739257172222, 48.0932533472222]}, "properties": {"name": "2026-09-22-15-36-32-214", "url": "https://gurtsepaqrt87.github.io/gkr63x-g84zwo/photos/2026-09-22/2026-09-22-15-36-32-214.jpg", "commentaire": "", "date": "2026-09-22", "type": "photo", "_umap_options": {"color": "#17becf"}, "_storage_options": {"color": "#17becf"}}}, {"type": "Feature", "geometry": {"type": "Point", "coordinates": [-2.0173763, 48.0696764]}, "properties": {"name": "2026-09-22-16-02-09-085", "url": "https://gurtsepaqrt87.github.io/gkr63x-g84zwo/photos/2026-09-22/2026-09-22-16-02-09-085.jpg", "commentaire": "", "date": "2026-09-22", "type": "photo", "_umap_options": {"color": "#17becf"}, "_storage_options": {"color": "#17becf"}}}, {"type": "Feature", "geometry": {"type": "Point", "coordinates": [-2.0058994, 48.0674922]}, "properties": {"name": "2026-09-22-16-12-31-735", "url": "https://gurtsepaqrt87.github.io/gkr63x-g84zwo/photos/2026-09-22/2026-09-22-16-12-31-735.jpg", "commentaire": "", "date": "2026-09-22", "type": "photo", "_umap_options": {"color": "#17becf"}, "_storage_options": {"color": "#17becf"}}}, {"type": "Feature", "geometry": {"type": "Point", "coordinates": [-1.9878165, 48.0635805]}, "properties": {"name": "2026-09-22-16-19-10-813", "url": "https://gurtsepaqrt87.github.io/gkr63x-g84zwo/photos/2026-09-22/2026-09-22-16-19-10-813.jpg", "commentaire": "", "date": "2026-09-22", "type": "photo", "_umap_options": {"color": "#17becf"}, "_storage_options": {"color": "#17becf"}}}, {"type": "Feature", "geometry": {"type": "Point", "coordinates": [-1.95672637452778, 48.0361559557778]}, "properties": {"name": "2026-09-22-16-35-23-107", "url": "https://gurtsepaqrt87.github.io/gkr63x-g84zwo/photos/2026-09-22/2026-09-22-16-35-23-107.jpg", "commentaire": "", "date": "2026-09-22", "type": "photo", "_umap_options": {"color": "#17becf"}, "_storage_options": {"color": "#17becf"}}}, {"type": "Feature", "geometry": {"type": "Point", "coordinates": [-1.9504998, 48.0272856]}, "properties": {"name": "2026-09-22-16-42-12-368", "url": "https://gurtsepaqrt87.github.io/gkr63x-g84zwo/photos/2026-09-22/2026-09-22-16-42-12-368.jpg", "commentaire": "", "date": "2026-09-22", "type": "photo", "_umap_options": {"color": "#17becf"}, "_storage_options": {"color": "#17becf"}}}, {"type": "Feature", "geometry": {"type": "Point", "coordinates": [-1.95406349127778, 48.02477018225]}, "properties": {"name": "2026-09-22-16-47-30-132", "url": "https://gurtsepaqrt87.github.io/gkr63x-g84zwo/photos/2026-09-22/2026-09-22-16-47-30-132.jpg", "commentaire": "", "date": "2026-09-22", "type": "photo", "_umap_options": {"color": "#17becf"}, "_storage_options": {"color": "#17becf"}}}, {"type": "Feature", "geometry": {"type": "Point", "coordinates": [-1.95409302811111, 48.0248081873056]}, "properties": {"name": "2026-09-22-16-47-43-529", "url": "https://gurtsepaqrt87.github.io/gkr63x-g84zwo/photos/2026-09-22/2026-09-22-16-47-43-529.jpg", "commentaire": "", "date": "2026-09-22", "type": "photo", "_umap_options": {"color": "#17becf"}, "_storage_options": {"color": "#17becf"}}}, {"type": "Feature", "geometry": {"type": "Point", "coordinates": [-1.95409302811111, 48.0248081873056]}, "properties": {"name": "2026-09-22-16-47-51-631", "url": "https://gurtsepaqrt87.github.io/gkr63x-g84zwo/photos/2026-09-22/2026-09-22-16-47-51-631.jpg", "commentaire": "", "date": "2026-09-22", "type": "photo", "_umap_options": {"color": "#17becf"}, "_storage_options": {"color": "#17becf"}}}, {"type": "Feature", "geometry": {"type": "Point", "coordinates": [-1.95348599913889, 48.024544137]}, "properties": {"name": "2026-09-22-16-49-15-552", "url": "https://gurtsepaqrt87.github.io/gkr63x-g84zwo/photos/2026-09-22/2026-09-22-16-49-15-552.jpg", "commentaire": "", "date": "2026-09-22", "type": "photo", "_umap_options": {"color": "#17becf"}, "_storage_options": {"color": "#17becf"}}}, {"type": "Feature", "geometry": {"type": "Point", "coordinates": [-1.95345883533333, 48.0245047671389]}, "properties": {"name": "2026-09-22-16-49-24-671", "url": "https://gurtsepaqrt87.github.io/gkr63x-g84zwo/photos/2026-09-22/2026-09-22-16-49-24-671.jpg", "commentaire": "", "date": "2026-09-22", "type": "photo", "_umap_options": {"color": "#17becf"}, "_storage_options": {"color": "#17becf"}}}, {"type": "Feature", "geometry": {"type": "Point", "coordinates": [-1.90186794119444, 48.0448114957222]}, "properties": {"name": "2026-09-22-17-09-30-639", "url": "https://gurtsepaqrt87.github.io/gkr63x-g84zwo/photos/2026-09-22/2026-09-22-17-09-30-639.jpg", "commentaire": "", "date": "2026-09-22", "type": "photo", "_umap_options": {"color": "#17becf"}, "_storage_options": {"color": "#17becf"}}}, {"type": "Feature", "geometry": {"type": "Point", "coordinates": [-1.75846817030556, 48.0720652881111]}, "properties": {"name": "2026-09-22-18-00-55-460", "url": "https://gurtsepaqrt87.github.io/gkr63x-g84zwo/photos/2026-09-22/2026-09-22-18-00-55-460.jpg", "commentaire": "", "date": "2026-09-22", "type": "photo", "_umap_options": {"color": "#17becf"}, "_storage_options": {"color": "#17becf"}}}, {"type": "Feature", "geometry": {"type": "Point", "coordinates": [-1.7513669, 48.0861363]}, "properties": {"name": "2026-09-22-18-08-06-731", "url": "https://gurtsepaqrt87.github.io/gkr63x-g84zwo/photos/2026-09-22/2026-09-22-18-08-06-731.jpg", "commentaire": "", "date": "2026-09-22", "type": "photo", "_umap_options": {"color": "#17becf"}, "_storage_options": {"color": "#17becf"}}}]}