{"type": "FeatureCollection", "features": [{"type": "Feature", "geometry": {"type": "LineString", "coordinates": [[-2.0298571, 48.1955326], [-2.0297243, 48.1956512], [-2.0298779, 48.1956164], [-2.0298687, 48.1956342], [-2.0319854, 48.1960851], [-2.0378148, 48.1958405], [-2.0411651, 48.1962615], [-2.0441769, 48.1945503], [-2.048361, 48.195481], [-2.050796, 48.1920012], [-2.0516151, 48.1894579], [-2.0563771, 48.1904806], [-2.0599361, 48.1888922], [-2.0630128, 48.1876407], [-2.0631452, 48.1846449], [-2.0640549, 48.1818187], [-2.0650316, 48.1790168], [-2.0635257, 48.176313], [-2.0621673, 48.1724805], [-2.0636346, 48.1700055], [-2.0631442, 48.1676431], [-2.0655714, 48.1665043], [-2.0655493, 48.1640455], [-2.0684582, 48.160369], [-2.0704056, 48.1570038], [-2.0704574, 48.1534692], [-2.0739387, 48.1519328], [-2.0778379, 48.1490976], [-2.0798216, 48.1463759], [-2.0800171, 48.143127], [-2.0823508, 48.1385018], [-2.0832708, 48.1346752], [-2.0871409, 48.1352815], [-2.0905026, 48.1359769], [-2.0956725, 48.1360954], [-2.1019639, 48.1365977], [-2.1063171, 48.1377629], [-2.1128932, 48.1379577], [-2.1178423, 48.1370601], [-2.1209599, 48.1361756], [-2.1254718, 48.1351659], [-2.1296257, 48.1341352], [-2.1344069, 48.133328], [-2.138882, 48.1320815], [-2.1449591, 48.1306002], [-2.1516865, 48.1287509], [-2.1560639, 48.1277111], [-2.1588838, 48.1269302], [-2.1594683, 48.1250629], [-2.1587798, 48.1215011], [-2.1589051, 48.1213156], [-2.158906, 48.1214055], [-2.1590268, 48.1214481], [-2.1589731, 48.1214512], [-2.1590691, 48.1215137], [-2.1590558, 48.1214227], [-2.1593401, 48.1208124], [-2.1604495, 48.1180684], [-2.1607508, 48.1152845], [-2.1594187, 48.1150793], [-2.1594183, 48.1150795], [-2.1594182, 48.1150796], [-2.1594192, 48.1150793], [-2.1594184, 48.1150795], [-2.1594183, 48.1150795], [-2.1594183, 48.1150796], [-2.1594186, 48.1150794], [-2.1593493, 48.1150396], [-2.1594187, 48.1150796], [-2.161769, 48.1136944], [-2.1625127, 48.1119662], [-2.1640302, 48.1104105], [-2.1655969, 48.1077805], [-2.1623956, 48.1058193], [-2.1595738, 48.1047213], [-2.1556312, 48.1045432], [-2.1507053, 48.1044342], [-2.1462336, 48.1042982], [-2.1397567, 48.1026027], [-2.1355162, 48.1019481], [-2.1313707, 48.1010379], [-2.1281577, 48.0993444], [-2.1240146, 48.0975397], [-2.1202997, 48.0972146], [-2.116864, 48.0968227], [-2.1146022, 48.0962496], [-2.1092854, 48.0950516], [-2.1064045, 48.0945551], [-2.1037892, 48.0941327], [-2.1012903, 48.0936395], [-2.0980097, 48.0932976], [-2.0928811, 48.094416], [-2.0897105, 48.0944481], [-2.0866163, 48.0942411], [-2.0819045, 48.0951995], [-2.0775988, 48.0955431], [-2.0744508, 48.096163], [-2.0694591, 48.0978766], [-2.0663219, 48.0981995], [-2.0643118, 48.0980976], [-2.0642524, 48.0962169], [-2.0643175, 48.0943578], [-2.0614986, 48.093055], [-2.0590552, 48.0940446], [-2.0575794, 48.0932029], [-2.0573988, 48.0931152], [-2.0581481, 48.0937871], [-2.0561896, 48.0952974], [-2.0549578, 48.0959744], [-2.0529904, 48.0964476], [-2.0504046, 48.0973995], [-2.0466516, 48.0969486], [-2.0456921, 48.0950972], [-2.0469896, 48.0927345], [-2.0485536, 48.0889443], [-2.0478926, 48.0848554], [-2.0428969, 48.0843473], [-2.0408545, 48.081956], [-2.0396103, 48.0800478], [-2.039668, 48.0779454], [-2.0375274, 48.0765192], [-2.0375052, 48.0765504], [-2.0371389, 48.0763513], [-2.0346025, 48.0732675], [-2.0311063, 48.0732817], [-2.0257689, 48.0736177], [-2.0237595, 48.0708782], [-2.0198655, 48.0701821], [-2.0173763, 48.0696764], [-2.0170077, 48.0696186], [-2.0138908, 48.0690366], [-2.0094147, 48.069494], [-2.0073282, 48.0706537], [-2.0064451, 48.0717591], [-2.006434, 48.0718408], [-2.0069218, 48.0710966], [-2.0091207, 48.0697842], [-2.0071527, 48.0692797], [-2.0060648, 48.0678339], [-2.0057488, 48.0673367], [-2.0031849, 48.0636064], [-1.9971485, 48.0625514], [-1.9944273, 48.0620517], [-1.991676, 48.063078], [-1.98737, 48.0634], [-1.9868034, 48.0635047], [-1.9805948, 48.0650216], [-1.9774472, 48.062448], [-1.9777905, 48.0581002], [-1.9756488, 48.0556962], [-1.9742371, 48.0531233], [-1.9732726, 48.0503718], [-1.9717072, 48.04763], [-1.967968, 48.046309], [-1.9645124, 48.0458613], [-1.9633357, 48.0438873], [-1.9603368, 48.0425906], [-1.958916, 48.0403276], [-1.9581191, 48.0384258], [-1.9574183, 48.0369872], [-1.9567904, 48.0361159], [-1.9566895, 48.0358656], [-1.9586646, 48.0344314], [-1.9566585, 48.0312082], [-1.9510222, 48.0306108], [-1.9504191, 48.0277332], [-1.950334, 48.0271653], [-1.9503952, 48.0273085], [-1.9511661, 48.0268567], [-1.9524605, 48.0261067], [-1.9540489, 48.0251838], [-1.9540744, 48.0248052], [-1.9534964, 48.0246214], [-1.953457, 48.0244974], [-1.9518118, 48.0239319], [-1.9496681, 48.0228552], [-1.9486212, 48.0206209], [-1.9455577, 48.0211603], [-1.9401821, 48.0223218], [-1.9366208, 48.0247985], [-1.9330674, 48.0268536], [-1.9321091, 48.0303892], [-1.929606, 48.0342373], [-1.9316861, 48.0356433], [-1.9308079, 48.0374813], [-1.9284206, 48.0386158], [-1.923894, 48.0390892], [-1.9191757, 48.0394458], [-1.9144602, 48.0407535], [-1.9097291, 48.0422817], [-1.9043884, 48.0444098], [-1.9017625, 48.0449157], [-1.9018871, 48.0448228], [-1.8989447, 48.0452451], [-1.8947771, 48.0464676], [-1.8913957, 48.0483142], [-1.8888313, 48.0497802], [-1.8851068, 48.0507245], [-1.883078, 48.0509934], [-1.8774919, 48.0503758], [-1.8736965, 48.0500714], [-1.8704302, 48.0497606], [-1.8694038, 48.0497093], [-1.8661768, 48.0491217], [-1.863044, 48.047966], [-1.8589189, 48.0469724], [-1.8548355, 48.0465056], [-1.8490667, 48.0456554], [-1.8447032, 48.0425148], [-1.8415228, 48.0404115], [-1.8373816, 48.0378458], [-1.8338872, 48.0363875], [-1.8307729, 48.0351713], [-1.8260315, 48.0350661], [-1.8204101, 48.0350581], [-1.8153508, 48.0337841], [-1.811337, 48.0326945], [-1.8096978, 48.0357237], [-1.8076637, 48.0403308], [-1.806184, 48.0432951], [-1.8047942, 48.0464452], [-1.8011188, 48.0482591], [-1.797473, 48.0501], [-1.7932893, 48.0505339], [-1.7905708, 48.0520639], [-1.7873254, 48.0525537], [-1.7828824, 48.0544835], [-1.7781867, 48.0561179], [-1.7742656, 48.0570081], [-1.7732911, 48.05693], [-1.7733365, 48.05691], [-1.773424, 48.0569628], [-1.7707882, 48.0575876], [-1.7678612, 48.0586102], [-1.7672134, 48.0610958], [-1.7670828, 48.0641429], [-1.7646775, 48.0657066], [-1.7604727, 48.0653777], [-1.7582984, 48.0673831], [-1.7588663, 48.0699471], [-1.758554, 48.0721024], [-1.7573839, 48.0725014], [-1.7548563, 48.0747872], [-1.7526521, 48.0771972], [-1.7520643, 48.0798617], [-1.7509126, 48.0826066], [-1.7509509, 48.0856916], [-1.7513622, 48.0861405], [-1.7516738, 48.0865573], [-1.75215, 48.0894155], [-1.7502693, 48.0922271], [-1.7466299, 48.0937948], [-1.7449424, 48.0962355], [-1.7434855, 48.0990297], [-1.7402253, 48.100984], [-1.7351586, 48.1014429], [-1.7316351, 48.0992201], [-1.7276934, 48.1004602], [-1.7232378, 48.1014622], [-1.7202717, 48.1034599], [-1.7166634, 48.1053954], [-1.7144319, 48.1067473], [-1.7101897, 48.1074651], [-1.7059473, 48.1075086], [-1.702618, 48.1077631], [-1.6984742, 48.1087763], [-1.6966141, 48.1079146], [-1.6945242, 48.1104747], [-1.6929013, 48.1109729], [-1.6930106, 48.1109528], [-1.6929947, 48.1110451], [-1.6926901, 48.1102838], [-1.6918441, 48.1092702], [-1.688431, 48.1098832], [-1.684964, 48.1103684], [-1.6813242, 48.1101042], [-1.6778205, 48.1099329], [-1.6748565, 48.1101629], [-1.6729515, 48.1078765], [-1.6692188, 48.1067362], [-1.6648471, 48.1048508], [-1.6633939, 48.1038932], [-1.6624669, 48.1027111], [-1.662445, 48.102483], [-1.6623847, 48.1023319], [-1.6624104, 48.102344], [-1.662417, 48.1023666], [-1.662421, 48.1023611], [-1.6624182, 48.1023546], [-1.6623938, 48.1023045], [-1.6624167, 48.1023579], [-1.6624059, 48.1023461], [-1.6623649, 48.102282], [-1.6623842, 48.1022948]]}, "properties": {"name": "Journee du 2026-09-22", "date": "2026-09-22", "description": "Parcours du 2026-09-22", "_umap_options": {"color": "#17becf", "weight": 4, "opacity": 0.8}, "_storage_options": {"color": "#17becf", "weight": 4, "opacity": 0.8}}}, {"type": "Feature", "geometry": {"type": "LineString", "coordinates": [[-1.6578465, 48.1145413], [-1.6572839, 48.1146989], [-1.6572763, 48.1147011], [-1.657306, 48.1147615], [-1.6572981, 48.1147536], [-1.6573062, 48.1147582], [-1.6573003, 48.1147499], [-1.6573089, 48.1147355], [-1.6573065, 48.1147572], [-1.6573925, 48.1147408], [-1.6572744, 48.1147023], [-1.6572627, 48.1147014], [-1.6572694, 48.1147035], [-1.657285, 48.1147094], [-1.6573034, 48.1147058], [-1.6573618, 48.1147296], [-1.6574107, 48.1147403], [-1.6573186, 48.114722], [-1.6573846, 48.1146747], [-1.6577954, 48.1145885], [-1.6578355, 48.1145775], [-1.661092, 48.1135485], [-1.6647855, 48.1127183], [-1.6689371, 48.1124223], [-1.6733498, 48.1126489], [-1.6752473, 48.1135413], [-1.6735224, 48.1144363], [-1.6733023, 48.1144065], [-1.6738703, 48.1145418], [-1.6743585, 48.114775], [-1.6768065, 48.1149903], [-1.6773956, 48.1136981], [-1.6778282, 48.1123764], [-1.6781632, 48.1123558], [-1.6778612, 48.1104961], [-1.6783618, 48.1102632], [-1.6778006, 48.1093435], [-1.6763084, 48.1093007], [-1.6758014, 48.1074045], [-1.676054, 48.1067114], [-1.675423, 48.1054533], [-1.6753198, 48.1053533], [-1.6732265, 48.1042867], [-1.6726815, 48.104246], [-1.668934, 48.1044664], [-1.6676241, 48.1046478], [-1.6660536, 48.1049091], [-1.6642005, 48.1044056], [-1.6633658, 48.1036482], [-1.6615443, 48.1025663], [-1.6619981, 48.1024022], [-1.6625905, 48.1023816], [-1.6624144, 48.1027361], [-1.6624467, 48.1027234], [-1.662521, 48.1025517], [-1.66251, 48.1024476], [-1.6623724, 48.1023583], [-1.6623672, 48.1023522], [-1.6623755, 48.1023637], [-1.6623768, 48.1023631], [-1.6623619, 48.1023128]]}, "properties": {"name": "Journee du 2026-09-29 (troncon 3/3)", "date": "2026-09-29", "description": "Parcours du 2026-09-29", "_umap_options": {"color": "#9467bd", "weight": 4, "opacity": 0.8}, "_storage_options": {"color": "#9467bd", "weight": 4, "opacity": 0.8}}}]}