{"type": "FeatureCollection", "features": [{"type": "Feature", "geometry": {"type": "Point", "coordinates": [-1.6624, 48.1023]}, "properties": {"name": ".trashed-1793270844-2026-09-29-11-28-58-355", "url": "https://gurtsepaqrt87.github.io/gkr63x-g84zwo/photos/2026-09-29/.trashed-1793270844-2026-09-29-11-28-58-355.mp4", "commentaire": "", "date": "2026-09-29", "type": "video", "_umap_options": {"color": "#9467bd", "iconClass": "circle"}, "_storage_options": {"color": "#9467bd", "iconClass": "circle"}}}, {"type": "Feature", "geometry": {"type": "Point", "coordinates": [-1.6624, 48.1024]}, "properties": {"name": ".trashed-1793275313-2026-09-29-12-52-23-372", "url": "https://gurtsepaqrt87.github.io/gkr63x-g84zwo/photos/2026-09-29/.trashed-1793275313-2026-09-29-12-52-23-372.mp4", "commentaire": "", "date": "2026-09-29", "type": "video", "_umap_options": {"color": "#9467bd", "iconClass": "circle"}, "_storage_options": {"color": "#9467bd", "iconClass": "circle"}}}, {"type": "Feature", "geometry": {"type": "Point", "coordinates": [-1.6624, 48.1024]}, "properties": {"name": "2026-09-29-12-56-11-098", "url": "https://gurtsepaqrt87.github.io/gkr63x-g84zwo/photos/2026-09-29/2026-09-29-12-56-11-098.mp4", "commentaire": "", "date": "2026-09-29", "type": "video", "_umap_options": {"color": "#9467bd", "iconClass": "circle"}, "_storage_options": {"color": "#9467bd", "iconClass": "circle"}}}]}